STARLINK-31595          
1 59273U 24050V   26068.78536062  .00023984  00000+0  81891-3 0  9991
2 59273  53.1570 180.5315 0001420  96.4959 263.6204 15.30215116110562
HERMES-3                
1 63835U 25052BR  26068.93751242  .00020316  00000+0  69958-3 0  9995
2 63835  97.3987 324.6131 0007993 112.9583 247.2502 15.30039785 54863
